[{"OBJECT_NAME":"STARLINK-35017","OBJECT_ID":"2025-184V","EPOCH":"2026-03-09T16:25:05.764800","MEAN_MOTION":15.0564487,"ECCENTRICITY":7.566e-5,"INCLINATION":97.6034,"RA_OF_ASC_NODE":122.71,"ARG_OF_PERICENTER":106.689,"MEAN_ANOMALY":253.4419,"EPHEMERIS_TYPE":0,"CLASSIFICATION_TYPE":"U","NORAD_CAT_ID":65292,"ELEMENT_SET_NO":999,"REV_AT_EPOCH":3125,"BSTAR":0.00022122538,"MEAN_MOTION_DOT":3.132e-5,"MEAN_MOTION_DDOT":0},{"OBJECT_NAME":"COSMOS 2251 DEB","OBJECT_ID":"1993-036BFE","EPOCH":"2026-03-07T11:17:48.105024","MEAN_MOTION":15.02528382,"ECCENTRICITY":0.00920663,"INCLINATION":74.0305,"RA_OF_ASC_NODE":348.6467,"ARG_OF_PERICENTER":45.7,"MEAN_ANOMALY":315.169,"EPHEMERIS_TYPE":0,"CLASSIFICATION_TYPE":"U","NORAD_CAT_ID":37084,"ELEMENT_SET_NO":999,"REV_AT_EPOCH":67539,"BSTAR":0.00092223433,"MEAN_MOTION_DOT":0.00013425,"MEAN_MOTION_DDOT":0}]
